ONEWEB-0604             
1 54668U 22166AC  26154.29224096  .00000033  00000+0  48083-4 0  9990
2 54668  87.9267 246.7368 0001950 102.2293 257.9060 13.21826652169607
ONEWEB-0605             
1 54669U 22166AD  26154.28551430  .00000112  00000+0  23902-3 0  9995
2 54669  87.9259 246.7530 0002649  97.5133 262.6302 13.21824522169678
ONEWEB-0606             
1 54670U 22166AE  26155.66991782  .00000103  00000+0  21844-3 0  9991
2 54670  87.9241 246.4881 0001806  97.9614 262.1725 13.21825655169918
ONEWEB-0607             
1 54671U 22166AF  26154.27371404  .00000100  00000+0  21145-3 0  9992
2 54671  87.9264 246.7375 0002017  95.9162 264.2202 13.21828047169704
ONEWEB-0608             
1 54672U 22166AG  26154.28046464  .00000059  00000+0  11022-3 0  9995
2 54672  87.9271 246.7328 0002502  95.8878 264.2542 13.21826954169716
ONEWEB-0610             
1 54673U 22166AH  26154.63874410 -.00000072  00000+0 -20617-3 0  9992
2 54673  87.9257 246.6764 0002388  86.2508 273.8899 13.21827712169668
ONEWEB-0611             
1 54674U 22166AJ  26154.63201925  .00000136  00000+0  29709-3 0  9998
2 54674  87.9255 246.6741 0001980 103.9759 256.1595 13.21828212169656
ONEWEB-0612             
1 54675U 22166AK  26154.64547540  .00000019  00000+0  15384-4 0  9991
2 54675  87.9266 246.6651 0002160  97.9600 262.1780 13.21824038169641
ONEWEB-0615             
1 54676U 22166AL  26154.62530689 -.00000031  00000+0 -10716-3 0  9995
2 54676  87.9258 246.6853 0001724 101.3617 258.7710 13.21825594169653
ONEWEB-0655             
1 54677U 22166AM  26155.66150637  .00000198  00000+0  44742-3 0  9990
2 54677  87.9256 246.4806 0001940  92.7610 267.3746 13.21826451169786
ONEWEB-0659             
1 54678U 22166AN  26154.61855314  .00000057  00000+0  10574-3 0  9999
2 54678  87.9259 246.6882 0002025 102.2588 257.8773 13.21828332169731
ONEWEB-0685             
1 54679U 22166AP  26154.31603956  .00000009  00000+0 -89970-5 0  9996
2 54679  87.9254 246.7408 0002054  92.8094 267.3275 13.21819777169589
ONEWEB-0712             
1 54680U 22166AQ  26154.60855479  .00000016  00000+0  75940-5 0  9998
2 54680  87.9107 231.4700 0001763  86.2258 273.9075 13.16593689170273
ONEWEB-0714             
1 54681U 22166AR  26154.62362237 -.00000574  00000+0 -14224-2 0  9992
2 54681  87.9260 246.6762 0001918  94.1489 265.9864 13.21820229169742
ONEWEB-0532             
1 55140U 23004A   26155.12418859  .00000057  00000+0  11251-3 0  9995
2 55140  87.9145   8.4632 0002124  91.0155 269.1220 13.17648074165863
ONEWEB-0533             
1 55141U 23004B   26155.03966476 -.00000420  00000+0 -12022-2 0  9991
2 55141  87.8946 353.2861 0001952  77.1785 282.9562 13.12442657166338
ONEWEB-0541             
1 55142U 23004C   26155.05925716 -.00000266  00000+0 -78674-3 0  9990
2 55142  87.8914  23.6701 0001794  94.2721 265.8612 13.11419684164224
ONEWEB-0543             
1 55143U 23004D   26155.03723011 -.00000033  00000+0 -11768-3 0  9996
2 55143  87.9152 338.0882 0001655  83.8945 276.2376 13.18688841167968
ONEWEB-0544             
1 55144U 23004E   26155.03049171 -.00000010  00000+0 -58412-4 0  9998
2 55144  87.9156 338.0887 0001630  93.5501 266.5818 13.18686120167968
ONEWEB-0560             
1 55145U 23004F   26155.02375185 -.00000003  00000+0 -40117-4 0  9990
2 55145  87.9157 338.0793 0001543  91.2000 268.9309 13.18685765167974
ONEWEB-0565             
1 55146U 23004G   26155.01699777 -.00000004  00000+0 -43389-4 0  9991
2 55146  87.9148 338.1097 0001808 105.0243 255.1089 13.18686103167969
ONEWEB-0567             
1 55147U 23004H   26155.01025932  .00000023  00000+0  24818-4 0  9993
2 55147  87.9155 338.0940 0001663 101.9779 258.1540 13.18685907167968
ONEWEB-0569             
1 55148U 23004J   26154.44850771  .00000286  00000+0  74764-3 0  9992
2 55148  87.8953 322.9553 0001027 113.2210 246.9028 13.13469394168373
ONEWEB-0570             
1 55149U 23004K   26155.07769131 -.00000075  00000+0 -22358-3 0  9992
2 55149  87.9154 338.0784 0002213  97.5406 262.5978 13.18688152167963
ONEWEB-0571             
1 55150U 23004L   26155.07094570  .00000086  00000+0  18496-3 0  9990
2 55150  87.9155 338.0773 0001988 142.5927 217.5344 13.18688601167978
ONEWEB-0572             
1 55151U 23004M   26155.07862333  .00000014  00000+0  32592-5 0  9997
2 55151  87.9140   8.4740 0001821  90.2801 269.8540 13.17647251165758
ONEWEB-0573             
1 55152U 23004N   26155.06421128  .00000063  00000+0  12798-3 0  9998
2 55152  87.9157 338.0816 0001646 120.2908 239.8387 13.18687383167962
ONEWEB-0588             
1 55153U 23004P   26155.05745857  .00000074  00000+0  15507-3 0  9999
2 55153  87.9151 338.0837 0002243 105.8329 254.3051 13.18688003167960
ONEWEB-0598             
1 55154U 23004Q   26155.11350556 -.00000366  00000+0 -10677-2 0  9993
2 55154  87.8885  23.6724 0001164 102.7070 257.4188 13.11415790164186
ONEWEB-0599             
1 55155U 23004R   26155.11575215 -.00000005  00000+0 -45971-4 0  9992
2 55155  87.9144   8.4643 0001639  79.4125 280.7191 13.17646908165766
