OBJECT_NAME,OBJECT_ID,EPOCH,MEAN_MOTION,ECCENTRICITY,INCLINATION,RA_OF_ASC_NODE,ARG_OF_PERICENTER,MEAN_ANOMALY,EPHEMERIS_TYPE,CLASSIFICATION_TYPE,NORAD_CAT_ID,ELEMENT_SET_NO,REV_AT_EPOCH,BSTAR,MEAN_MOTION_DOT,MEAN_MOTION_DDOT
ONEWEB-0604,2022-166AC,2026-06-03T07:00:49.618944,13.21826652,.00019506,87.9267,246.7368,102.2293,257.9060,0,U,54668,999,16960,.48082667E-4,.33E-6,0
ONEWEB-0605,2022-166AD,2026-06-03T06:51:08.435520,13.21824522,.00026498,87.9259,246.7530,97.5133,262.6302,0,U,54669,999,16967,.23902479E-3,.112E-5,0
ONEWEB-0606,2022-166AE,2026-06-04T16:04:40.899648,13.21825655,.0001806,87.9241,246.4881,97.9614,262.1725,0,U,54670,999,16991,.21844E-3,.103E-5,0
ONEWEB-0607,2022-166AF,2026-06-03T06:34:08.893056,13.21828047,.00020177,87.9264,246.7375,95.9162,264.2202,0,U,54671,999,16970,.21144688E-3,.1E-5,0
ONEWEB-0608,2022-166AG,2026-06-03T06:43:52.144896,13.21826954,.00025026,87.9271,246.7328,95.8878,264.2542,0,U,54672,999,16971,.11021991E-3,.59E-6,0
ONEWEB-0610,2022-166AH,2026-06-03T15:19:47.490240,13.21827712,.0002388,87.9257,246.6764,86.2508,273.8899,0,U,54673,999,16966,-.20617E-3,-.72E-6,0
ONEWEB-0611,2022-166AJ,2026-06-03T15:10:06.463200,13.21828212,.000198,87.9255,246.6741,103.9759,256.1595,0,U,54674,999,16965,.29709E-3,.136E-5,0
ONEWEB-0612,2022-166AK,2026-06-03T15:29:29.074560,13.21824038,.00021606,87.9266,246.6651,97.9600,262.1780,0,U,54675,999,16964,.15383793E-4,.19E-6,0
ONEWEB-0615,2022-166AL,2026-06-03T15:00:26.515296,13.21825594,.0001724,87.9258,246.6853,101.3617,258.7710,0,U,54676,999,16965,-.10716E-3,-.31E-6,0
ONEWEB-0655,2022-166AM,2026-06-04T15:52:34.150368,13.21826451,.000194,87.9256,246.4806,92.7610,267.3746,0,U,54677,999,16978,.44742E-3,.198E-5,0
ONEWEB-0659,2022-166AN,2026-06-03T14:50:42.991296,13.21828332,.0002025,87.9259,246.6882,102.2588,257.8773,0,U,54678,999,16973,.10574E-3,.57E-6,0
ONEWEB-0685,2022-166AP,2026-06-03T07:35:05.817984,13.21819777,.00020541,87.9254,246.7408,92.8094,267.3275,0,U,54679,999,16958,-.8997028E-5,.9E-7,0
ONEWEB-0712,2022-166AQ,2026-06-03T14:36:19.133856,13.16593689,.00017638,87.9107,231.4700,86.2258,273.9075,0,U,54680,999,17027,.7593962E-5,.16E-6,0
ONEWEB-0714,2022-166AR,2026-06-03T14:58:00.972768,13.21820229,.0001918,87.9260,246.6762,94.1489,265.9864,0,U,54681,999,16974,-.14224E-2,-.574E-5,0
ONEWEB-0532,2023-004A,2026-06-04T02:58:49.894176,13.17648074,.00021249,87.9145,8.4632,91.0155,269.1220,0,U,55140,999,16586,.11250717E-3,.57E-6,0
ONEWEB-0533,2023-004B,2026-06-04T00:57:07.035264,13.12442657,.00019522,87.8946,353.2861,77.1785,282.9562,0,U,55141,999,16633,-.12022109E-2,-.42E-5,0
ONEWEB-0541,2023-004C,2026-06-04T01:25:19.818624,13.11419684,.0001794,87.8914,23.6701,94.2721,265.8612,0,U,55142,999,16422,-.78673798E-3,-.266E-5,0
ONEWEB-0543,2023-004D,2026-06-04T00:53:36.681504,13.18688841,.00016552,87.9152,338.0882,83.8945,276.2376,0,U,55143,999,16796,-.11767606E-3,-.33E-6,0
ONEWEB-0544,2023-004E,2026-06-04T00:43:54.483744,13.18686120,.00016302,87.9156,338.0887,93.5501,266.5818,0,U,55144,999,16796,-.58411521E-4,-.1E-6,0
ONEWEB-0560,2023-004F,2026-06-04T00:34:12.159840,13.18685765,.00015433,87.9157,338.0793,91.2000,268.9309,0,U,55145,999,16797,-.40117058E-4,-.3E-7,0
ONEWEB-0565,2023-004G,2026-06-04T00:24:28.607328,13.18686103,.00018084,87.9148,338.1097,105.0243,255.1089,0,U,55146,999,16796,-.43388812E-4,-.4E-7,0
ONEWEB-0567,2023-004H,2026-06-04T00:14:46.405248,13.18685907,.00016631,87.9155,338.0940,101.9779,258.1540,0,U,55147,999,16796,.24817666E-4,.23E-6,0
ONEWEB-0569,2023-004J,2026-06-03T10:45:51.066144,13.13469394,.00010279,87.8953,322.9553,113.2210,246.9028,0,U,55148,999,16837,.74763535E-3,.286E-5,0
ONEWEB-0570,2023-004K,2026-06-04T01:51:52.529184,13.18688152,.0002213,87.9154,338.0784,97.5406,262.5978,0,U,55149,999,16796,-.22357943E-3,-.75E-6,0
ONEWEB-0571,2023-004L,2026-06-04T01:42:09.708480,13.18688601,.00019889,87.9155,338.0773,142.5927,217.5344,0,U,55150,999,16797,.1849582E-3,.86E-6,0
ONEWEB-0572,2023-004M,2026-06-04T01:53:13.055712,13.17647251,.00018216,87.9140,8.4740,90.2801,269.8540,0,U,55151,999,16575,.3259162E-5,.14E-6,0
ONEWEB-0573,2023-004N,2026-06-04T01:32:27.854592,13.18687383,.00016463,87.9157,338.0816,120.2908,239.8387,0,U,55152,999,16796,.12797916E-3,.63E-6,0
ONEWEB-0588,2023-004P,2026-06-04T01:22:44.420448,13.18688003,.00022438,87.9151,338.0837,105.8329,254.3051,0,U,55153,999,16796,.15506751E-3,.74E-6,0
ONEWEB-0598,2023-004Q,2026-06-04T02:43:26.880384,13.11415790,.00011641,87.8885,23.6724,102.7070,257.4188,0,U,55154,999,16418,-.10676797E-2,-.366E-5,0
ONEWEB-0599,2023-004R,2026-06-04T02:46:40.985760,13.17646908,.00016398,87.9144,8.4643,79.4125,280.7191,0,U,55155,999,16576,-.45970807E-4,-.5E-7,0
